TJS-2                   
1 41911U 17001A   18185.16663935 -.00000341  00000-0  00000+0 0  9995
2 41911   0.1488  97.6097 0000628 166.8130 185.2211  1.00274238  5606
HISPASAT 36W-1          
1 41942U 17006A   18184.31866315 -.00000244  00000-0  00000+0 0  9999
2 41942   0.0016 339.6408 0001003 120.1404 260.2271  1.00273065  5399
TELKOM 3S               
1 41944U 17007A   18184.88935877 -.00000362  00000-0  00000-0 0  9996
2 41944   0.0225  33.9167 0001980  62.6744 263.4315  1.00269036  5005
INTELSAT 32E (IS-32E)   
1 41945U 17007B   18184.33853612 -.00000269  00000-0  00000-0 0  9999
2 41945   0.0236  32.0109 0000214   9.6478 318.3430  1.00267975  5107
ECHOSTAR 23             
1 42070U 17014A   18184.34335497 -.00000273  00000-0  00000-0 0  9999
2 42070   0.0228  23.8309 0001942  78.3054 257.8855  1.00270136  4818
SES-10                  
1 42432U 17017A   18184.40431814 -.00000272  00000-0  00000-0 0  9990
2 42432   0.0098   3.3152 0002996 103.6315 253.0833  1.00271522  4641
CHINASAT 16 (SJ-13)     
1 42662U 17018A   18184.91004606 -.00000351  00000-0  00000+0 0  9994
2 42662   0.0452  89.0725 0005270 122.4254 148.4682  1.00267720  4617
KOREASAT 7              
1 42691U 17023A   18184.89557244 -.00000361  00000-0  00000-0 0  9992
2 42691   0.0271  14.5663 0001723  93.2334 252.2192  1.00268078  4241
SGDC                    
1 42692U 17023B   18185.42360115 -.00000248  00000-0  00000+0 0  9995
2 42692   0.0145  49.7692 0002238  56.9051 253.3489  1.00271546  4322
GSAT-9                  
1 42695U 17024A   18183.94960883 -.00000286  00000-0  00000-0 0  9995
2 42695   0.0981 276.3198 0002519 185.3587 258.3463  1.00271038  4294
INMARSAT 5-F4           
1 42698U 17025A   18184.06240605  .00000075  00000-0  00000+0 0  9990
2 42698   0.0495 220.2199 0000390 325.3577 174.4184  1.00273687  4139
SES-15                  
1 42709U 17026A   18184.57668070  .00000061  00000-0  00000+0 0  9995
2 42709   0.0206  11.9426 0000625  85.2035 262.8610  1.00267487  5040
VIASAT-2                
1 42740U 17029A   18184.41261681 -.00000264  00000-0  00000-0 0  9990
2 42740   0.0232  30.6456 0000333 104.4018 224.9553  1.00270322  4053
EUTELSAT 172B           
1 42741U 17029B   18183.74241777 -.00000006  00000-0  00000-0 0  9994
2 42741   0.0191 357.9640 0000320 125.2518 236.7834  1.00273220  4581
GSAT-19                 
1 42747U 17031A   18184.08648421  .00000125  00000-0  00000+0 0  9998
2 42747   0.0779 272.2163 0006349 162.9464 284.9044  1.00270810  3997
ECHOSTAR 21             
1 42749U 17032A   18184.07222768  .00000065  00000-0  00000+0 0  9995
2 42749   6.8494 317.1509 0002077 144.6162 215.5409  1.00272175  3986
CHINASAT 9A (ZX 9A)     
1 42763U 17035A   18185.59848235 -.00000311  00000-0  00000+0 0  9990
2 42763   0.0433 256.7516 0004760 200.6072 142.0693  1.00271178  4523
BULGARIASAT-1           
1 42801U 17038A   18185.21090592  .00000012  00000-0  00000+0 0  9997
2 42801   0.0270  48.7363 0002561  51.3579 259.9347  1.00270081  3787
HELLAS-SAT 3            
1 42814U 17040A   18184.11097361  .00000152  00000-0  00000+0 0  9998
2 42814   0.0545  24.1178 0003759  41.8718 294.0464  1.00274619  3755
GSAT-17                 
1 42815U 17040B   18183.95984824 -.00000258  00000-0  00000+0 0  9997
2 42815   0.0888  98.4362 0001931 180.9810  80.5571  1.00272859  3732
INTELSAT 35E (IS-35E)   
1 42818U 17041A   18184.31447860 -.00000238  00000-0  00000+0 0  9994
2 42818   0.0420 223.2262 0000940 215.7844 280.9969  1.00271014  3703
COSMOS 2520             
1 42907U 17046A   18184.94496891  .00000138  00000-0  00000-0 0  9994
2 42907   0.0089  39.6836 0002358 153.4534 113.9543  1.00273837  3256
TDRS 13                 
1 42915U 17047A   18184.28956635 -.00000286  00000-0  00000+0 0  9992
2 42915   6.6175 331.3997 0028280  13.2565 346.9368  1.00497156  3246
QZS-3                   
1 42917U 17048A   18184.86455478 -.00000348  00000-0  00000-0 0  9998
2 42917   0.0599 185.6733 0001659 283.6298 250.7125  1.00266394  3129
AMAZONAS 5              
1 42934U 17053A   18184.38800096 -.00000282  00000-0  00000-0 0  9997
2 42934   0.0254 333.6582 0002035  95.4165 290.9442  1.00270164  2963
ASIASAT 9               
1 42942U 17057A   18184.93927865 -.00000359  00000-0  00000+0 0  9999
2 42942   0.0136  15.8079 0002628  87.9685 278.3435  1.00269778  2817
INTELSAT 37E (IS-37E)   
1 42950U 17059A   18185.26611879 -.00000139  00000-0  00000+0 0  9998
2 42950   0.0182  18.8690 0002595  93.8581 247.3003  1.00270210  2925
BSAT-4A                 
1 42951U 17059B   18184.91200450 -.00000349  00000-0  00000+0 0  9992
2 42951   0.0449   1.3689 0004173  74.0528 284.6225  1.00271708  2825
SES-11 (ECHOSTAR 105)   
1 42967U 17063A   18184.50970911 -.00000088  00000-0  00000-0 0  9996
2 42967   0.0395 243.1844 0002530 222.3452 254.4956  1.00272384  2670
KOREASAT 5A             
1 42984U 17067A   18183.90549943 -.00000358  00000-0  00000+0 0  9998
2 42984   0.0120  75.2470 0001264  22.9720 261.7917  1.00271524  2492
ALCOMSAT 1              
1 43039U 17078A   18184.28777588 -.00000186  00000-0  00000+0 0  9991
2 43039   0.0088  92.6268 0003412   9.0812 258.3302  1.00269075  2151
